ORBCOMM FM33            
1 25983U 99065D   25299.82776603  .00001833  00000+0  61728-3 0  9993
2 25983  45.0276  92.9562 0007351   7.3967 352.6990 14.40338535355041
ORBCOMM FM36            
1 25984U 99065E   25299.75452387  .00001594  00000+0  56313-3 0  9994
2 25984  45.0384 187.2396 0002576 267.9985  92.0569 14.38507869353368
ORBCOMM FM35            
1 25985U 99065F   25299.76055265  .00001493  00000+0  54164-3 0  9990
2 25985  45.0388 193.3051 0004893 340.3512  19.7147 14.37439458353719
ORBCOMM FM34            
1 25986U 99065G   25299.79548300  .00001249  00000+0  46121-3 0  9994
2 25986  45.0381 193.5966 0004439 300.0326  60.0082 14.37414798353832
ORBCOMM FM38            
1 33060U 08031A   25299.72310413  .00002996  00000+0  40075-3 0  9996
2 33060  48.4403  48.1465 0005570 249.9809 110.0507 14.81946545934257
ORBCOMM FM41            
1 33061U 08031B   25299.72733882  .00003122  00000+0  42075-3 0  9990
2 33061  48.4437  56.3668 0004704 235.9911 288.1878 14.81511522933731
ORBCOMM FM29            
1 33062U 08031C   25299.76699163  .00003128  00000+0  42021-3 0  9995
2 33062  48.4384  63.8173 0006385 234.0712 278.9944 14.81638272933657
ORBCOMM FM39            
1 33063U 08031D   25299.76545735  .00002913  00000+0  40752-3 0  9991
2 33063  48.4390  89.5690 0007092 205.4672 154.5895 14.80116605933280
